{
  "type": "FeatureCollection",
  "features": [
    {
      "type": "Feature",
      "properties": {
        "norad_id": 40362,
        "name": "YAOGAN-26",
        "group": "resource",
        "lat": -1.7881572409653401,
        "lon": 159.63446347378866,
        "alt_km": 455.9830663070634,
        "timestamp": "2025-12-04T21:36:15.531523+00:00",
        "meta_object_name": "YAOGAN-26",
        "meta_object_id": "2014-088A",
        "meta_epoch": "2025-12-04T14:34:31.575360",
        "meta_mean_motion": 15.3886671,
        "meta_eccentricity": 0.00072368,
        "meta_inclination": 97.0637,
        "meta_ra_of_asc_node": 339.574,
        "meta_arg_of_pericenter": 51.9198,
        "meta_mean_anomaly": 308.27,
        "meta_ephemeris_type": 0,
        "meta_classification_type": "U",
        "meta_norad_cat_id": 40362,
        "meta_element_set_no": 999,
        "meta_rev_at_epoch": 60769,
        "meta_bstar": 0.00093506202,
        "meta_mean_motion_dot": 0.00036024,
        "meta_mean_motion_ddot": 0,
        "tle_line1": "1 40362U 14088A   25338.60730990  .00036024  00000+0  93506-3 0  9991",
        "tle_line2": "2 40362  97.0637 339.5740 0007236  51.9198 308.2700 15.38866710607694"
      },
      "geometry": {
        "type": "Point",
        "coordinates": [
          159.63446347378866,
          -1.7881572409653401
        ]
      }
    },
    {
      "type": "Feature",
      "properties": {
        "norad_id": 40376,
        "name": "SMAP",
        "group": "resource",
        "lat": 43.88469916461468,
        "lon": -24.164679834159013,
        "alt_km": 678.1154408855436,
        "timestamp": "2025-12-04T21:36:15.531533+00:00",
        "meta_object_name": "SMAP",
        "meta_object_id": "2015-003A",
        "meta_epoch": "2025-12-04T14:50:15.394272",
        "meta_mean_motion": 14.63329053,
        "meta_eccentricity": 0.00012108,
        "meta_inclination": 98.1291,
        "meta_ra_of_asc_node": 343.4592,
        "meta_arg_of_pericenter": 87.1839,
        "meta_mean_anomaly": 272.9502,
        "meta_ephemeris_type": 0,
        "meta_classification_type": "U",
        "meta_norad_cat_id": 40376,
        "meta_element_set_no": 999,
        "meta_rev_at_epoch": 57916,
        "meta_bstar": 0.00021730034,
        "meta_mean_motion_dot": 1.075e-05,
        "meta_mean_motion_ddot": 0,
        "tle_line1": "1 40376U 15003A   25338.61823373  .00001075  00000+0  21730-3 0  9991",
        "tle_line2": "2 40376  98.1291 343.4592 0001210  87.1839 272.9502 14.63329053579163"
      },
      "geometry": {
        "type": "Point",
        "coordinates": [
          -24.164679834159013,
          43.88469916461468
        ]
      }
    },
    {
      "type": "Feature",
      "properties": {
        "norad_id": 40536,
        "name": "KOMPSAT-3A",
        "group": "resource",
        "lat": -9.124145711223147,
        "lon": -45.941942300833475,
        "alt_km": 442.2975663335437,
        "timestamp": "2025-12-04T21:36:15.531543+00:00",
        "meta_object_name": "KOMPSAT-3A",
        "meta_object_id": "2015-014A",
        "meta_epoch": "2025-12-04T15:25:13.890432",
        "meta_mean_motion": 15.43505259,
        "meta_eccentricity": 0.00039123,
        "meta_inclination": 97.6775,
        "meta_ra_of_asc_node": 312.5449,
        "meta_arg_of_pericenter": 143.8577,
        "meta_mean_anomaly": 216.2935,
        "meta_ephemeris_type": 0,
        "meta_classification_type": "U",
        "meta_norad_cat_id": 40536,
        "meta_element_set_no": 999,
        "meta_rev_at_epoch": 59170,
        "meta_bstar": 0.00076791631,
        "meta_mean_motion_dot": 0.00034445,
        "meta_mean_motion_ddot": 0,
        "tle_line1": "1 40536U 15014A   25338.64252188  .00034445  00000+0  76792-3 0  9999",
        "tle_line2": "2 40536  97.6775 312.5449 0003912 143.8577 216.2935 15.43505259591708"
      },
      "geometry": {
        "type": "Point",
        "coordinates": [
          -45.941942300833475,
          -9.124145711223147
        ]
      }
    },
    {
      "type": "Feature",
      "properties": {
        "norad_id": 40697,
        "name": "SENTINEL-2A",
        "group": "resource",
        "lat": 69.16496384082424,
        "lon": -105.11144164676278,
        "alt_km": 781.532040052969,
        "timestamp": "2025-12-04T21:36:15.531554+00:00",
        "meta_object_name": "SENTINEL-2A",
        "meta_object_id": "2015-028A",
        "meta_epoch": "2025-12-04T16:03:42.165792",
        "meta_mean_motion": 14.30822517,
        "meta_eccentricity": 0.00010335,
        "meta_inclination": 98.5701,
        "meta_ra_of_asc_node": 51.3169,
        "meta_arg_of_pericenter": 93.8151,
        "meta_mean_anomaly": 266.315,
        "meta_ephemeris_type": 0,
        "meta_classification_type": "U",
        "meta_norad_cat_id": 40697,
        "meta_element_set_no": 999,
        "meta_rev_at_epoch": 54591,
        "meta_bstar": 0.00014443148,
        "meta_mean_motion_dot": 3.35e-06,
        "meta_mean_motion_ddot": 0,
        "tle_line1": "1 40697U 15028A   25338.66923803  .00000335  00000+0  14443-3 0  9999",
        "tle_line2": "2 40697  98.5701  51.3169 0001033  93.8151 266.3150 14.30822517545917"
      },
      "geometry": {
        "type": "Point",
        "coordinates": [
          -105.11144164676278,
          69.16496384082424
        ]
      }
    },
    {
      "type": "Feature",
      "properties": {
        "norad_id": 40701,
        "name": "GAOFEN-8",
        "group": "resource",
        "lat": 5.742742129047917,
        "lon": 155.88206810952562,
        "alt_km": 461.1168483262827,
        "timestamp": "2025-12-04T21:36:15.531564+00:00",
        "meta_object_name": "GAOFEN-8",
        "meta_object_id": "2015-030A",
        "meta_epoch": "2025-12-04T15:20:01.713408",
        "meta_mean_motion": 15.38134002,
        "meta_eccentricity": 0.00112674,
        "meta_inclination": 97.6905,
        "meta_ra_of_asc_node": 156.387,
        "meta_arg_of_pericenter": 166.5036,
        "meta_mean_anomaly": 193.6512,
        "meta_ephemeris_type": 0,
        "meta_classification_type": "U",
        "meta_norad_cat_id": 40701,
        "meta_element_set_no": 999,
        "meta_rev_at_epoch": 58146,
        "meta_bstar": 0.00091662645,
        "meta_mean_motion_dot": 0.00034511,
        "meta_mean_motion_ddot": 0,
        "tle_line1": "1 40701U 15030A   25338.63890872  .00034511  00000+0  91663-3 0  9996",
        "tle_line2": "2 40701  97.6905 156.3870 0011267 166.5036 193.6512 15.38134002581462"
      },
      "geometry": {
        "type": "Point",
        "coordinates": [
          155.88206810952562,
          5.742742129047917
        ]
      }
    },
    {
      "type": "Feature",
      "properties": {
        "norad_id": 40718,
        "name": "CARBONITE 1 (CBNT-1)",
        "group": "resource",
        "lat": 64.01806806564112,
        "lon": 144.3022701006451,
        "alt_km": 622.3637782431788,
        "timestamp": "2025-12-04T21:36:15.531575+00:00",
        "meta_object_name": "CARBONITE 1 (CBNT-1)",
        "meta_object_id": "2015-032D",
        "meta_epoch": "2025-12-04T14:49:56.254080",
        "meta_mean_motion": 14.82684141,
        "meta_eccentricity": 0.00139049,
        "meta_inclination": 97.6398,
        "meta_ra_of_asc_node": 160.02,
        "meta_arg_of_pericenter": 208.7749,
        "meta_mean_anomaly": 151.2699,
        "meta_ephemeris_type": 0,
        "meta_classification_type": "U",
        "meta_norad_cat_id": 40718,
        "meta_element_set_no": 999,
        "meta_rev_at_epoch": 56050,
        "meta_bstar": 0.00062085104,
        "meta_mean_motion_dot": 4.967e-05,
        "meta_mean_motion_ddot": 0,
        "tle_line1": "1 40718U 15032D   25338.61801220  .00004967  00000+0  62085-3 0  9991",
        "tle_line2": "2 40718  97.6398 160.0200 0013904 208.7749 151.2699 14.82684141560505"
      },
      "geometry": {
        "type": "Point",
        "coordinates": [
          144.3022701006451,
          64.01806806564112
        ]
      }
    },
    {
      "type": "Feature",
      "properties": {
        "norad_id": 40878,
        "name": "YAOGAN-27",
        "group": "resource",
        "lat": 39.896705948446666,
        "lon": 157.44472529741998,
        "alt_km": 1202.236229748727,
        "timestamp": "2025-12-04T21:36:15.531585+00:00",
        "meta_object_name": "YAOGAN-27",
        "meta_object_id": "2015-040A",
        "meta_epoch": "2025-12-04T15:25:30.245952",
        "meta_mean_motion": 13.16059694,
        "meta_eccentricity": 0.00077182,
        "meta_inclination": 100.1005,
        "meta_ra_of_asc_node": 328.6292,
        "meta_arg_of_pericenter": 306.6636,
        "meta_mean_anomaly": 53.3768,
        "meta_ephemeris_type": 0,
        "meta_classification_type": "U",
        "meta_norad_cat_id": 40878,
        "meta_element_set_no": 999,
        "meta_rev_at_epoch": 49207,
        "meta_bstar": 8.1176202e-05,
        "meta_mean_motion_dot": -1.2e-07,
        "meta_mean_motion_ddot": 0,
        "tle_line1": "1 40878U 15040A   25338.64271118 -.00000012  00000+0  81176-4 0  9998",
        "tle_line2": "2 40878 100.1005 328.6292 0007718 306.6636  53.3768 13.16059694492079"
      },
      "geometry": {
        "type": "Point",
        "coordinates": [
          157.44472529741998,
          39.896705948446666
        ]
      }
    }
  ]
}